[{"OBJECT_NAME":"STARLINK-4082","OBJECT_ID":"2022-053C","EPOCH":"2026-03-09T11:54:30.769344","MEAN_MOTION":15.08840906,"ECCENTRICITY":0.0001454,"INCLINATION":53.2172,"RA_OF_ASC_NODE":154.9911,"ARG_OF_PERICENTER":104.3967,"MEAN_ANOMALY":255.7187,"EPHEMERIS_TYPE":0,"CLASSIFICATION_TYPE":"U","NORAD_CAT_ID":52658,"ELEMENT_SET_NO":999,"REV_AT_EPOCH":21120,"BSTAR":3.1752167e-5,"MEAN_MOTION_DOT":2.17e-6,"MEAN_MOTION_DDOT":0},{"OBJECT_NAME":"OBJECT A","OBJECT_ID":"2024-110A","EPOCH":"2026-03-09T23:09:02.134656","MEAN_MOTION":15.1192128,"ECCENTRICITY":0.0007919,"INCLINATION":97.5675,"RA_OF_ASC_NODE":161.4531,"ARG_OF_PERICENTER":228.7681,"MEAN_ANOMALY":131.2868,"EPHEMERIS_TYPE":0,"CLASSIFICATION_TYPE":"U","NORAD_CAT_ID":60012,"ELEMENT_SET_NO":999,"REV_AT_EPOCH":9691,"BSTAR":0.00051932581,"MEAN_MOTION_DOT":8.842e-5,"MEAN_MOTION_DDOT":0}]
